#dP2022  2  9  0  0  0.00000000      96 __u+U ITR00 EXT  IAC
## 2196 259200.00000000   900.00000000 59619 0.0000000000000
+  115   C06C07C08C09C10C11C12C13C14C16C19C20C21C22C23C24C25
+        C26C27C28C29C30C32C33C34C35C36C37C38C39C40C41C42C43
+        C44C45C46E01E02E03E04E05E07E08E09E11E12E13E14E15E18
+        E21E24E25E26E27E30E31E33E36G01G02G03G04G05G06G07G08
+        G09G10G11G12G13G14G15G16G17G18G19G20G21G22G23G24G25
+        G26G27G28G29G30G31G32J01J02J03R01R02R03R04R05R07R08
+        R09R11R12R13R14R15R17R18R19R20R21R22R24  0  0  0  0
++         9 10  8  8 10  9  9  8  9  9  8  8  9  7  8  8  9
++         8  9  7  8  8  8  8  8  8  8  9  8  9 10  9 10 10
++         9  8  8  8  8  9  8  9  9  8  8  8  9  7  7  8  7
++         8  8  8  8  9  8  8  7  8  7  8  8  8  7  7  7 11
++         8  8  7  7  7  8  7  9  7  8  9  7  8  8  8  7  7
++         7  7  8  7  7  7  8 11  9 10  8  8  9  6  8 10 10
++         7  7  9 10  7  7  9  9  9  8  9  8  8  0  0  0  0
%c M  cc GPS ccc cccc cccc cccc cccc ccccc ccccc ccccc ccccc
%c cc cc ccc ccc cccc cccc cccc cccc ccccc ccccc ccccc ccccc
%f  0.0000000  0.000000000  0.00000000000  0.000000000000000
%f  0.0000000  0.000000000  0.00000000000  0.000000000000000
%i    0    0    0    0      0      0      0      0         0
%i    0    0    0    0      0      0      0      0         0
/* IAC                                ULTRA-RAPID PREDICTION
/* S/V CLOCKS ARE ALIGNED TO GNSS TIME                      
/* G:C1WC2W R:C1PC2P E:C1XC5X C:C2IC6I J:C1CC2S             
/* PCV:IGS14_2194 OL/AL:FES2004  NONE     YN ORB:CoN CLK:CoN
*  2022 02 09 16 15  0.00000000
PC06 -18858.600360  28832.410319 -24448.715277     21.704594
PC07  -7467.110899  39960.807587 -10900.864584    -32.566341
PC08  -1748.149779  22938.336441  35372.515765    122.300051
PC09 -10083.416786  27734.673322 -29973.431748   -508.262186
PC10  -1697.972197  41621.487474  -4337.730828    139.875007
PC11 -23109.092253   -225.643771 -15553.264691   -218.495913
PC12  -8384.180133 -12913.489309 -23232.602384    680.847127
PC13   5485.807780  26836.757025  32270.887078   -121.614898
PC14 -15163.950958  -7039.254375  22374.818061    457.002096
PC16 -20286.775981  28536.337285 -23543.378323     78.183597
PC19  15732.471115  -4547.426818 -22570.251670    899.532474
PC20  12651.012850  15515.654564 -19415.008167   -819.656995
PC21  -1731.411306 -27516.467835   4392.686745   -953.345905
PC22   9874.675009 -22770.893567 -12776.402387   -957.800210
PC23 -11204.643262  12043.162018 -22545.743476   -963.951088
PC24 -22028.159333 -16848.154863   2934.692236   -943.740800
PC25 -23595.837703  -2119.984702 -14739.568447   -781.912871
PC26  -9075.133855 -20029.187893  17145.446616    781.521264
PC27  -1236.025589  17406.566555  21764.501862    674.767354
PC28 -19073.410343  17510.310082  10415.500053     30.771895
PC29  25640.325551  -8166.011820   7376.313435    512.885269
PC30  17162.471204   7085.394844  20821.253188    492.992494
PC32   1882.010626  27503.421409  -4295.709483   -963.923800
PC33 -15758.027416   4503.529011  22591.764211   -956.379804
PC34 -17968.709338  -6402.561429 -20385.041453   -472.785197
PC35  18952.933029 -17986.283423  -9750.499801    132.029481
PC36  23730.287101   3095.069038  14378.034758   -897.595725
PC37   7565.279234  20108.662982 -17815.226776   -967.593636
PC38  -9239.696282  21649.391991  35019.574955    210.224688
PC39 -24354.813797  29225.981817 -18340.985638     34.762712
PC40 -11781.866546  37914.481702 -13959.727407    242.966133
PC41 -10079.223255  22474.320006  13173.955510   -934.677516
PC42 -12356.331565 -16447.436424  18907.344288   -930.525753
PC43 -25675.295295   7557.189009  -7955.130860   -942.767632
PC44    727.202673 -17608.016973 -21635.835270    559.364641
PC45  10942.077097 -12084.024992  22645.531741    676.136380
PC46  22712.726480  16171.563164  -1642.848014   -159.690742
PE01  -2514.980390 -25682.047772  14485.455764   -575.858549
PE02   2649.530021  25760.509162 -14365.753831    279.169793
PE03  -7813.972803  26588.500415 -10392.070993   -525.992834
PE04  -8235.184851 -17126.689413  22697.557707   -961.053976
PE05 -19584.824337  20600.631657   8265.199579   -210.631713
PE07  19788.307799  -2710.561175 -21843.902330   -637.295055
PE08   8512.969707  16671.894654 -22927.960105   5858.129565
PE09 -19731.276598   3072.890122  21847.584052   5366.019488
PE11 -29459.536685  -2098.538468  -2127.820920   4490.665628
PE12 -18166.906253 -13062.366683 -19383.276836   4767.785545
PE13  29362.129927   2439.032964   2802.754154    426.402213
PE14  12179.734913 -26866.310302 -11385.820179  -1739.870938
PE15  18033.771441  13020.544343  19537.582523    764.298233
PE18 -15309.638612  19228.797220   2805.477879  -1812.290003
PE21  11661.676114 -12776.159586  24013.074076   -716.191870
PE24 -20107.818823  -9476.082459 -19547.037724  -1381.471653
PE25 -11816.480293  12555.555032 -24061.120635   -563.065389
PE26  22651.160240 -10050.440337 -16177.790613   -786.135352
PE27  19982.834689   8192.105109  20248.557365   -228.563589
PE30  15845.659565  24763.406867   3537.851485   -260.574506
PE31 -16471.578974 -24151.333845  -4603.658930   -491.945616
PE33   3856.928963 -15874.259147 -24672.389779   -459.584204
PE36 -23371.686760   9518.699868  15489.157487   -329.962886
PG01 -17228.971691 -13549.486031 -15525.259862    435.711117
PG02  -5515.440377  14817.918424  22020.896588   -650.534989
PG03 -13079.844148 -22180.086721   6636.671986   -113.879869
PG04  -8271.338179 -13263.195583  21468.050470   -190.530848
PG05   4038.801876  24758.419650   8329.835160    -70.843026
PG06 -20901.810778   6564.211858  15138.814817    196.308569
PG07 -26136.655688  -5891.892266   1830.764866    309.027901
PG08    925.811851 -20194.736966 -17065.264920    -55.499252
PG09 -16782.057310  -2131.401993  20412.417407   -354.865220
PG10  14482.057946  -3746.663795 -21817.195255   -315.857512
PG11  -7476.039438  13681.370267  21500.240922    -94.575689
PG12   9934.252797  24351.798741   3924.033552   -168.493054
PG13  -9958.388862  21093.988843 -12702.587210    258.974255
PG14 -15174.817524   2919.637791 -21610.365817    -81.823901
PG15   2429.443091  20215.662746 -17295.432091    -85.112404
PG16   1549.014843 -23631.611712  11266.627131   -467.241472
PG17 -20984.789235  11459.446634 -11181.267692    572.873552
PG18  26000.554833   5603.329535    981.392249    243.730558
PG19 -20688.450651  15928.047648  -4563.221672    116.723128
PG20  -2306.162720  20677.825919  16647.473726    516.781875
PG21  -8389.004647 -14758.101113 -19908.926837    157.747079
PG22  18812.649322 -18570.052164   -714.181512    211.075177
PG23  17149.355675   8379.223137 -18521.747564      2.915130
PG24  13694.111662  14574.679346 -17965.212537    275.293284
PG25  16336.814333  15660.078196  13845.727963    283.139075
PG26   9158.985718 -15103.287982  19666.152021    181.798759
PG27  10694.046424 -22468.469781  -8892.875762    111.622422
PG28 -11281.555803  11938.623979 -20402.380524    404.100942
PG29  14497.766582   5621.616631  21497.468293   -478.088390
PG30 -25611.164978    719.123237  -7392.519658   -512.324844
PG31  19540.396135  -7960.623458  16284.567634   -163.937757
PG32  19921.194924 -15255.858143  -8287.874570    -64.740815
PJ01 -31473.045110  24693.941033  18234.197268    255.530273
PJ02 -20929.066548  21046.481533 -25418.806116     -1.247874
PJ03 -29985.728801  28176.001460  14178.294512     -0.459886
PR01  10152.745059 -20139.266349 -11925.606063      7.078358
PR02   2056.840861 -24133.542396   7939.626166    509.124722
PR03  -7076.922059 -12955.579674  20830.059608     51.234847
PR04 -11847.321081   5246.084602  22002.274754    126.974524
PR05 -10323.985931  20578.233382  11022.566858     87.410327
PR07   7293.330566  12403.394677 -21036.927936     31.488308
PR08  11918.418116  -5355.418699 -21845.630370    -63.463651
PR09   9218.547370  18397.881803 -15013.868505     38.589601
PR11  18339.817248   6057.029226  16662.820379     45.841691
PR12   6377.317386  -9082.694946  22985.207921     17.130698
PR13  -8434.831280 -18033.476856  15921.892030    -18.087579
PR14 -19149.406985 -16796.342211  -1458.182950     74.154055
PR15 -18036.432546  -5641.533262 -17117.356714     98.308219
PR17 -15702.019499  -4621.944492 -19538.323767    500.124725
PR18 -24477.514818   4283.462695  -5869.746780    106.690204
PR19 -21247.288392  10047.288519   9920.722316   -177.564751
PR20  -3298.551365  11230.824397  22682.887922    -64.617181
PR21  16864.771716   3900.108324  18749.277430   -276.717296
PR22  24537.428503  -4566.126404   4993.639680   -163.634416
PR24   2138.004231 -11589.974464 -22601.328236     79.457249
EOF
